{"fetched_at":"2026-07-13T07:47:52.862Z","source":"https://celestrak.org/NORAD/elements/gp.php?GROUP=kuiper&FORMAT=JSON","constellation":"kuiper","records":[{"OBJECT_NAME":"KUIPER-00086","OBJECT_ID":"2025-151S","EPOCH":"2026-07-12T04:28:33.890304","CLASSIFICATION_TYPE":"U","MEAN_MOTION":14.79942994,"ECCENTRICITY":0.00008015,"INCLINATION":51.9007,"RA_OF_ASC_NODE":107.586,"ARG_OF_PERICENTER":104.6815,"MEAN_ANOMALY":255.4236,"EPHEMERIS_TYPE":0,"NORAD_CAT_ID":64832,"ELEMENT_SET_NO":999,"REV_AT_EPOCH":5377,"BSTAR":0.00028409557,"MEAN_MOTION_DOT":0.00001946,"MEAN_MOTION_DDOT":0},{"OBJECT_NAME":"KUIPER-00087","OBJECT_ID":"2025-151T","EPOCH":"2026-07-12T03:18:29.604960","CLASSIFICATION_TYPE":"U","MEAN_MOTION":14.79936938,"ECCENTRICITY":0.00009091,"INCLINATION":51.9003,"RA_OF_ASC_NODE":90.2637,"ARG_OF_PERICENTER":109.1966,"MEAN_ANOMALY":250.9095,"EPHEMERIS_TYPE":0,"NORAD_CAT_ID":64833,"ELEMENT_SET_NO":999,"REV_AT_EPOCH":5400,"BSTAR":0.00027369501,"MEAN_MOTION_DOT":0.00001866,"MEAN_MOTION_DDOT":0},{"OBJECT_NAME":"KUIPER-00089","OBJECT_ID":"2025-151U","EPOCH":"2026-07-12T03:10:43.826016","CLASSIFICATION_TYPE":"U","MEAN_MOTION":14.79944844,"ECCENTRICITY":0.00006912,"INCLINATION":51.8998,"RA_OF_ASC_NODE":95.3088,"ARG_OF_PERICENTER":102.7142,"MEAN_ANOMALY":257.3898,"EPHEMERIS_TYPE":0,"NORAD_CAT_ID":64834,"ELEMENT_SET_NO":999,"REV_AT_EPOCH":5394,"BSTAR":0.00031065204,"MEAN_MOTION_DOT":0.00002148,"MEAN_MOTION_DDOT":0},{"OBJECT_NAME":"KUIPER-00090","OBJECT_ID":"2025-151V","EPOCH":"2026-07-12T01:45:09.165600","CLASSIFICATION_TYPE":"U","MEAN_MOTION":14.79932571,"ECCENTRICITY":0.00008798,"INCLINATION":51.8965,"RA_OF_ASC_NODE":88.0798,"ARG_OF_PERICENTER":100.1875,"MEAN_ANOMALY":259.9186,"EPHEMERIS_TYPE":0,"NORAD_CAT_ID":64835,"ELEMENT_SET_NO":999,"REV_AT_EPOCH":5403,"BSTAR":-0.00004193699,"MEAN_MOTION_DOT":-0.00000541,"MEAN_MOTION_DDOT":0},{"OBJECT_NAME":"KUIPER-00091","OBJECT_ID":"2025-151W","EPOCH":"2026-07-12T17:49:48.866016","CLASSIFICATION_TYPE":"U","MEAN_MOTION":14.79937909,"ECCENTRICITY":0.0000663,"INCLINATION":51.9013,"RA_OF_ASC_NODE":90.1266,"ARG_OF_PERICENTER":104.1081,"MEAN_ANOMALY":255.9955,"EPHEMERIS_TYPE":0,"NORAD_CAT_ID":64836,"ELEMENT_SET_NO":999,"REV_AT_EPOCH":5406,"BSTAR":0.00026234,"MEAN_MOTION_DOT":0.00001779,"MEAN_MOTION_DDOT":0},{"OBJECT_NAME":"KUIPER-00092","OBJECT_ID":"2025-151X","EPOCH":"2026-07-12T03:02:58.428096","CLASSIFICATION_TYPE":"U","MEAN_MOTION":14.79934489,"ECCENTRICITY":0.00013763,"INCLINATION":51.9024,"RA_OF_ASC_NODE":100.3402,"ARG_OF_PERICENTER":78.4657,"MEAN_ANOMALY":281.6459,"EPHEMERIS_TYPE":0,"NORAD_CAT_ID":64837,"ELEMENT_SET_NO":999,"REV_AT_EPOCH":5508,"BSTAR":0.00016862387,"MEAN_MOTION_DOT":0.00001064,"MEAN_MOTION_DDOT":0},{"OBJECT_NAME":"KUIPER-00093","OBJECT_ID":"2025-151Y","EPOCH":"2026-07-12T02:59:05.299296","CLASSIFICATION_TYPE":"U","MEAN_MOTION":14.79934657,"ECCENTRICITY":0.0000746,"INCLINATION":51.8995,"RA_OF_ASC_NODE":102.8269,"ARG_OF_PERICENTER":99.8947,"MEAN_ANOMALY":260.21,"EPHEMERIS_TYPE":0,"NORAD_CAT_ID":64838,"ELEMENT_SET_NO":999,"REV_AT_EPOCH":5383,"BSTAR":0.000085046424,"MEAN_MOTION_DOT":0.00000427,"MEAN_MOTION_DDOT":0},{"OBJECT_NAME":"KUIPER-00094","OBJECT_ID":"2025-151Z","EPOCH":"2026-07-12T18:44:14.734176","CLASSIFICATION_TYPE":"U","MEAN_MOTION":14.79906374,"ECCENTRICITY":0.000102,"INCLINATION":51.9046,"RA_OF_ASC_NODE":55.0141,"ARG_OF_PERICENTER":99.7507,"MEAN_ANOMALY":260.3571,"EPHEMERIS_TYPE":0,"NORAD_CAT_ID":64839,"ELEMENT_SET_NO":999,"REV_AT_EPOCH":5456,"BSTAR":0.000282,"MEAN_MOTION_DOT":0.00001928,"MEAN_MOTION_DDOT":0},{"OBJECT_NAME":"KUIPER-00081","OBJECT_ID":"2025-171A","EPOCH":"2026-07-12T17:16:22.802304","CLASSIFICATION_TYPE":"U","MEAN_MOTION":14.79932882,"ECCENTRICITY":0.0000535,"INCLINATION":51.9019,"RA_OF_ASC_NODE":315.1917,"ARG_OF_PERICENTER":109.6717,"MEAN_ANOMALY":250.4303,"EPHEMERIS_TYPE":0,"NORAD_CAT_ID":65132,"ELEMENT_SET_NO":999,"REV_AT_EPOCH":5155,"BSTAR":0.00013131,"MEAN_MOTION_DOT":0.0000078,"MEAN_MOTION_DDOT":0},{"OBJECT_NAME":"KUIPER-00088","OBJECT_ID":"2025-171B","EPOCH":"2026-07-12T18:26:26.831904","CLASSIFICATION_TYPE":"U","MEAN_MOTION":14.79932782,"ECCENTRICITY":0.0000512,"INCLINATION":51.9023,"RA_OF_ASC_NODE":332.4797,"ARG_OF_PERICENTER":113.9744,"MEAN_ANOMALY":246.1272,"EPHEMERIS_TYPE":0,"NORAD_CAT_ID":65133,"ELEMENT_SET_NO":999,"REV_AT_EPOCH":5131,"BSTAR":0.00015794,"MEAN_MOTION_DOT":0.00000983,"MEAN_MOTION_DDOT":0},{"OBJECT_NAME":"KUIPER-00095","OBJECT_ID":"2025-171C","EPOCH":"2026-07-12T12:28:32.604384","CLASSIFICATION_TYPE":"U","MEAN_MOTION":14.79930835,"ECCENTRICITY":0.00004746,"INCLINATION":51.8987,"RA_OF_ASC_NODE":313.6254,"ARG_OF_PERICENTER":120.0826,"MEAN_ANOMALY":240.0183,"EPHEMERIS_TYPE":0,"NORAD_CAT_ID":65134,"ELEMENT_SET_NO":999,"REV_AT_EPOCH":5155,"BSTAR":0.00016595392,"MEAN_MOTION_DOT":0.00001044,"MEAN_MOTION_DDOT":0},{"OBJECT_NAME":"KUIPER-00096","OBJECT_ID":"2025-171D","EPOCH":"2026-07-12T17:49:27.888960","CLASSIFICATION_TYPE":"U","MEAN_MOTION":14.79932796,"ECCENTRICITY":0.000043,"INCLINATION":51.902,"RA_OF_ASC_NODE":325.0891,"ARG_OF_PERICENTER":145.1061,"MEAN_ANOMALY":214.993,"EPHEMERIS_TYPE":0,"NORAD_CAT_ID":65135,"ELEMENT_SET_NO":999,"REV_AT_EPOCH":5141,"BSTAR":0.0001104,"MEAN_MOTION_DOT":0.00000621,"MEAN_MOTION_DDOT":0},{"OBJECT_NAME":"KUIPER-00097","OBJECT_ID":"2025-171E","EPOCH":"2026-07-12T16:08:22.210656","CLASSIFICATION_TYPE":"U","MEAN_MOTION":14.79932692,"ECCENTRICITY":0.0000549,"INCLINATION":51.9033,"RA_OF_ASC_NODE":328.0566,"ARG_OF_PERICENTER":108.9673,"MEAN_ANOMALY":251.1349,"EPHEMERIS_TYPE":0,"NORAD_CAT_ID":65136,"ELEMENT_SET_NO":999,"REV_AT_EPOCH":5135,"BSTAR":0.000042752,"MEAN_MOTION_DOT":0.00000105,"MEAN_MOTION_DDOT":0},{"OBJECT_NAME":"KUIPER-00098","OBJECT_ID":"2025-171F","EPOCH":"2026-07-12T14:27:13.377024","CLASSIFICATION_TYPE":"U","MEAN_MOTION":14.79933109,"ECCENTRICITY":0.0000568,"INCLINATION":51.9019,"RA_OF_ASC_NODE":330.7307,"ARG_OF_PERICENTER":105.3059,"MEAN_ANOMALY":254.7967,"EPHEMERIS_TYPE":0,"NORAD_CAT_ID":65137,"ELEMENT_SET_NO":999,"REV_AT_EPOCH":5066,"BSTAR":0.00012876,"MEAN_MOTION_DOT":0.00000761,"MEAN_MOTION_DDOT":0},{"OBJECT_NAME":"KUIPER-00099","OBJECT_ID":"2025-171G","EPOCH":"2026-07-12T17:08:37.121856","CLASSIFICATION_TYPE":"U","MEAN_MOTION":14.79933519,"ECCENTRICITY":0.0000557,"INCLINATION":51.9036,"RA_OF_ASC_NODE":320.2398,"ARG_OF_PERICENTER":108.0523,"MEAN_ANOMALY":252.05,"EPHEMERIS_TYPE":0,"NORAD_CAT_ID":65138,"ELEMENT_SET_NO":999,"REV_AT_EPOCH":5147,"BSTAR":0.00011887,"MEAN_MOTION_DOT":0.00000685,"MEAN_MOTION_DDOT":0},{"OBJECT_NAME":"KUIPER-00100","OBJECT_ID":"2025-171H","EPOCH":"2026-07-12T19:38:21.475104","CLASSIFICATION_TYPE":"U","MEAN_MOTION":14.79929896,"ECCENTRICITY":0.0000498,"INCLINATION":51.903,"RA_OF_ASC_NODE":317.2506,"ARG_OF_PERICENTER":101.5082,"MEAN_ANOMALY":258.5936,"EPHEMERIS_TYPE":0,"NORAD_CAT_ID":65139,"ELEMENT_SET_NO":999,"REV_AT_EPOCH":5152,"BSTAR":0.00028392,"MEAN_MOTION_DOT":0.00001944,"MEAN_MOTION_DDOT":0},{"OBJECT_NAME":"KUIPER-00102","OBJECT_ID":"2025-171J","EPOCH":"2026-07-12T17:57:13.851072","CLASSIFICATION_TYPE":"U","MEAN_MOTION":14.799336,"ECCENTRICITY":0.0000451,"INCLINATION":51.9006,"RA_OF_ASC_NODE":320.0484,"ARG_OF_PERICENTER":114.6304,"MEAN_ANOMALY":245.4705,"EPHEMERIS_TYPE":0,"NORAD_CAT_ID":65140,"ELEMENT_SET_NO":999,"REV_AT_EPOCH":5147,"BSTAR":0.000034372,"MEAN_MOTION_DOT":4.1e-7,"MEAN_MOTION_DDOT":0},{"OBJECT_NAME":"KUIPER-00103","OBJECT_ID":"2025-171K","EPOCH":"2026-07-12T19:55:54.825024","CLASSIFICATION_TYPE":"U","MEAN_MOTION":14.79934329,"ECCENTRICITY":0.0000478,"INCLINATION":51.9001,"RA_OF_ASC_NODE":337.1825,"ARG_OF_PERICENTER":106.1322,"MEAN_ANOMALY":253.9693,"EPHEMERIS_TYPE":0,"NORAD_CAT_ID":65141,"ELEMENT_SET_NO":999,"REV_AT_EPOCH":5124,"BSTAR":0.00013041,"MEAN_MOTION_DOT":0.00000773,"MEAN_MOTION_DDOT":0},{"OBJECT_NAME":"KUIPER-00104","OBJECT_ID":"2025-171L","EPOCH":"2026-07-12T13:46:21.364032","CLASSIFICATION_TYPE":"U","MEAN_MOTION":14.7994036,"ECCENTRICITY":0.0000526,"INCLINATION":51.9035,"RA_OF_ASC_NODE":325.817,"ARG_OF_PERICENTER":120.6392,"MEAN_ANOMALY":239.4622,"EPHEMERIS_TYPE":0,"NORAD_CAT_ID":65142,"ELEMENT_SET_NO":999,"REV_AT_EPOCH":5138,"BSTAR":0.00026249,"MEAN_MOTION_DOT":0.00001781,"MEAN_MOTION_DDOT":0},{"OBJECT_NAME":"KUIPER-00105","OBJECT_ID":"2025-171M","EPOCH":"2026-07-12T14:23:20.844384","CLASSIFICATION_TYPE":"U","MEAN_MOTION":14.79940974,"ECCENTRICITY":0.0000506,"INCLINATION":51.9009,"RA_OF_ASC_NODE":333.3047,"ARG_OF_PERICENTER":111.901,"MEAN_ANOMALY":248.2006,"EPHEMERIS_TYPE":0,"NORAD_CAT_ID":65143,"ELEMENT_SET_NO":999,"REV_AT_EPOCH":5128,"BSTAR":0.00027604,"MEAN_MOTION_DOT":0.00001884,"MEAN_MOTION_DDOT":0},{"OBJECT_NAME":"KUIPER-00106","OBJECT_ID":"2025-171N","EPOCH":"2026-07-12T13:55:34.889088","CLASSIFICATION_TYPE":"U","MEAN_MOTION":14.79930428,"ECCENTRICITY":0.000049,"INCLINATION":51.9028,"RA_OF_ASC_NODE":312.1523,"ARG_OF_PERICENTER":107.421,"MEAN_ANOMALY":252.6806,"EPHEMERIS_TYPE":0,"NORAD_CAT_ID":65144,"ELEMENT_SET_NO":999,"REV_AT_EPOCH":5158,"BSTAR":-0.000028081,"MEAN_MOTION_DOT":-0.00000435,"MEAN_MOTION_DDOT":0},{"OBJECT_NAME":"KUIPER-00107","OBJECT_ID":"2025-171P","EPOCH":"2026-07-12T13:13:16.783680","CLASSIFICATION_TYPE":"U","MEAN_MOTION":14.79939659,"ECCENTRICITY":0.0000476,"INCLINATION":51.9018,"RA_OF_ASC_NODE":315.9611,"ARG_OF_PERICENTER":119.5405,"MEAN_ANOMALY":240.5605,"EPHEMERIS_TYPE":0,"NORAD_CAT_ID":65145,"ELEMENT_SET_NO":999,"REV_AT_EPOCH":5152,"BSTAR":0.00025978,"MEAN_MOTION_DOT":0.0000176,"MEAN_MOTION_DDOT":0},{"OBJECT_NAME":"KUIPER-00108","OBJECT_ID":"2025-171Q","EPOCH":"2026-07-12T16:56:58.654752","CLASSIFICATION_TYPE":"U","MEAN_MOTION":14.79932346,"ECCENTRICITY":0.0000506,"INCLINATION":51.9041,"RA_OF_ASC_NODE":327.8115,"ARG_OF_PERICENTER":86.9281,"MEAN_ANOMALY":273.1739,"EPHEMERIS_TYPE":0,"NORAD_CAT_ID":65146,"ELEMENT_SET_NO":999,"REV_AT_EPOCH":5137,"BSTAR":0.000015707,"MEAN_MOTION_DOT":-0.00000101,"MEAN_MOTION_DDOT":0}]}
